{
  "type": "FeatureCollection",
  "features": [
    {
      "type": "Feature",
      "properties": {
        "norad_id": 33376,
        "name": "GALAXY 19 (G-19)",
        "group": "intelsat",
        "lat": -0.005135249949270438,
        "lon": -69.98063701052362,
        "alt_km": 35774.1096233336,
        "timestamp": "2025-12-27T19:21:58.441985+00:00",
        "meta_object_name": "GALAXY 19 (G-19)",
        "meta_object_id": "2008-045A",
        "meta_epoch": "2025-12-27T09:06:57.643776",
        "meta_mean_motion": 1.00271432,
        "meta_eccentricity": 0.0002872,
        "meta_inclination": 0.0359,
        "meta_ra_of_asc_node": 266.1925,
        "meta_arg_of_pericenter": 17.8673,
        "meta_mean_anomaly": 211.7897,
        "meta_ephemeris_type": 0,
        "meta_classification_type": "U",
        "meta_norad_cat_id": 33376,
        "meta_element_set_no": 999,
        "meta_rev_at_epoch": 6318,
        "meta_bstar": 0,
        "meta_mean_motion_dot": -1.17e-06,
        "meta_mean_motion_ddot": 0,
        "tle_line1": "1 33376U 08045A   25361.37983384 -.00000117  00000+0  00000+0 0  9999",
        "tle_line2": "2 33376   0.0359 266.1925 0002872  17.8673 211.7897  1.00271432 63186"
      },
      "geometry": {
        "type": "Point",
        "coordinates": [
          -69.98063701052362,
          -0.005135249949270438
        ]
      }
    },
    {
      "type": "Feature",
      "properties": {
        "norad_id": 35493,
        "name": "FM-5",
        "group": "intelsat",
        "lat": -0.008324177286442564,
        "lon": -59.11438211079847,
        "alt_km": 35790.59629735851,
        "timestamp": "2025-12-27T19:21:58.441995+00:00",
        "meta_object_name": "FM-5",
        "meta_object_id": "2009-034A",
        "meta_epoch": "2025-12-27T10:52:47.509824",
        "meta_mean_motion": 1.00267465,
        "meta_eccentricity": 0.0001464,
        "meta_inclination": 0.0229,
        "meta_ra_of_asc_node": 287.9381,
        "meta_arg_of_pericenter": 250.7628,
        "meta_mean_anomaly": 354.5394,
        "meta_ephemeris_type": 0,
        "meta_classification_type": "U",
        "meta_norad_cat_id": 35493,
        "meta_element_set_no": 999,
        "meta_rev_at_epoch": 4492,
        "meta_bstar": 0,
        "meta_mean_motion_dot": -1.77e-06,
        "meta_mean_motion_ddot": 0,
        "tle_line1": "1 35493U 09034A   25361.45332766 -.00000177  00000+0  00000+0 0  9997",
        "tle_line2": "2 35493   0.0229 287.9381 0001464 250.7628 354.5394  1.00267465 44925"
      },
      "geometry": {
        "type": "Point",
        "coordinates": [
          -59.11438211079847,
          -0.008324177286442564
        ]
      }
    },
    {
      "type": "Feature",
      "properties": {
        "norad_id": 36097,
        "name": "INTELSAT 14 (IS-14)",
        "group": "intelsat",
        "lat": -0.02286766243377653,
        "lon": -17.955553431459624,
        "alt_km": 35780.034900253406,
        "timestamp": "2025-12-27T19:21:58.442006+00:00",
        "meta_object_name": "INTELSAT 14 (IS-14)",
        "meta_object_id": "2009-064A",
        "meta_epoch": "2025-12-27T11:04:31.388160",
        "meta_mean_motion": 1.00271245,
        "meta_eccentricity": 0.0002727,
        "meta_inclination": 0.0153,
        "meta_ra_of_asc_node": 47.0951,
        "meta_arg_of_pericenter": 237.7475,
        "meta_mean_anomaly": 292.4803,
        "meta_ephemeris_type": 0,
        "meta_classification_type": "U",
        "meta_norad_cat_id": 36097,
        "meta_element_set_no": 999,
        "meta_rev_at_epoch": 5888,
        "meta_bstar": 0,
        "meta_mean_motion_dot": -2.51e-06,
        "meta_mean_motion_ddot": 0,
        "tle_line1": "1 36097U 09064A   25361.46147440 -.00000251  00000+0  00000+0 0  9998",
        "tle_line2": "2 36097   0.0153  47.0951 0002727 237.7475 292.4803  1.00271245 58884"
      },
      "geometry": {
        "type": "Point",
        "coordinates": [
          -17.955553431459624,
          -0.02286766243377653
        ]
      }
    },
    {
      "type": "Feature",
      "properties": {
        "norad_id": 36106,
        "name": "INTELSAT 15 (IS-15)",
        "group": "intelsat",
        "lat": 0.030239314677463772,
        "lon": 112.15872594568745,
        "alt_km": 35797.0376106723,
        "timestamp": "2025-12-27T19:21:58.442017+00:00",
        "meta_object_name": "INTELSAT 15 (IS-15)",
        "meta_object_id": "2009-067A",
        "meta_epoch": "2025-12-26T18:35:08.612736",
        "meta_mean_motion": 1.00269968,
        "meta_eccentricity": 0.00024632,
        "meta_inclination": 0.0172,
        "meta_ra_of_asc_node": 56.5413,
        "meta_arg_of_pericenter": 231.3991,
        "meta_mean_anomaly": 171.5093,
        "meta_ephemeris_type": 0,
        "meta_classification_type": "U",
        "meta_norad_cat_id": 36106,
        "meta_element_set_no": 999,
        "meta_rev_at_epoch": 3950,
        "meta_bstar": 0,
        "meta_mean_motion_dot": -1.63e-06,
        "meta_mean_motion_ddot": 0,
        "tle_line1": "1 36106U 09067A   25360.77440524 -.00000163  00000+0  00000+0 0  9996",
        "tle_line2": "2 36106   0.0172  56.5413 0002463 231.3991 171.5093  1.00269968 39509"
      },
      "geometry": {
        "type": "Point",
        "coordinates": [
          112.15872594568745,
          0.030239314677463772
        ]
      }
    },
    {
      "type": "Feature",
      "properties": {
        "norad_id": 36131,
        "name": "DIRECTV 12",
        "group": "intelsat",
        "lat": -0.007190566110668156,
        "lon": -75.69700298288464,
        "alt_km": 35783.82912180767,
        "timestamp": "2025-12-27T19:21:58.442028+00:00",
        "meta_object_name": "DIRECTV 12",
        "meta_object_id": "2009-075A",
        "meta_epoch": "2025-12-27T10:48:02.965248",
        "meta_mean_motion": 1.00273018,
        "meta_eccentricity": 4.75e-05,
        "meta_inclination": 0.0359,
        "meta_ra_of_asc_node": 163.0157,
        "meta_arg_of_pericenter": 138.9598,
        "meta_mean_anomaly": 213.5019,
        "meta_ephemeris_type": 0,
        "meta_classification_type": "U",
        "meta_norad_cat_id": 36131,
        "meta_element_set_no": 999,
        "meta_rev_at_epoch": 4483,
        "meta_bstar": 0,
        "meta_mean_motion_dot": -8.1e-07,
        "meta_mean_motion_ddot": 0,
        "tle_line1": "1 36131U 09075A   25361.45003432 -.00000081  00000+0  00000+0 0  9991",
        "tle_line2": "2 36131   0.0359 163.0157 0000475 138.9598 213.5019  1.00273018 44837"
      },
      "geometry": {
        "type": "Point",
        "coordinates": [
          -75.69700298288464,
          -0.007190566110668156
        ]
      }
    },
    {
      "type": "Feature",
      "properties": {
        "norad_id": 36397,
        "name": "INTELSAT 16 (IS-16)",
        "group": "intelsat",
        "lat": -0.02494591659339146,
        "lon": -49.15094354107316,
        "alt_km": 35779.211161827996,
        "timestamp": "2025-12-27T19:21:58.442038+00:00",
        "meta_object_name": "INTELSAT 16 (IS-16)",
        "meta_object_id": "2010-006A",
        "meta_epoch": "2025-12-27T10:55:39.736128",
        "meta_mean_motion": 1.00271266,
        "meta_eccentricity": 0.0002073,
        "meta_inclination": 0.0091,
        "meta_ra_of_asc_node": 21.7707,
        "meta_arg_of_pericenter": 252.5598,
        "meta_mean_anomaly": 269.5879,
        "meta_ephemeris_type": 0,
        "meta_classification_type": "U",
        "meta_norad_cat_id": 36397,
        "meta_element_set_no": 999,
        "meta_rev_at_epoch": 5793,
        "meta_bstar": 0,
        "meta_mean_motion_dot": -2.22e-06,
        "meta_mean_motion_ddot": 0,
        "tle_line1": "1 36397U 10006A   25361.45532102 -.00000222  00000+0  00000+0 0  9999",
        "tle_line2": "2 36397   0.0091  21.7707 0002073 252.5598 269.5879  1.00271266 57937"
      },
      "geometry": {
        "type": "Point",
        "coordinates": [
          -49.15094354107316,
          -0.02494591659339146
        ]
      }
    },
    {
      "type": "Feature",
      "properties": {
        "norad_id": 37185,
        "name": "XM-5",
        "group": "intelsat",
        "lat": -0.016134551658672606,
        "lon": -88.12079113456994,
        "alt_km": 35785.40928588081,
        "timestamp": "2025-12-27T19:21:58.442049+00:00",
        "meta_object_name": "XM-5",
        "meta_object_id": "2010-053A",
        "meta_epoch": "2025-12-27T10:44:33.299232",
        "meta_mean_motion": 1.00275106,
        "meta_eccentricity": 0.0002843,
        "meta_inclination": 0.0683,
        "meta_ra_of_asc_node": 269.6203,
        "meta_arg_of_pericenter": 270.975,
        "meta_mean_anomaly": 321.5456,
        "meta_ephemeris_type": 0,
        "meta_classification_type": "U",
        "meta_norad_cat_id": 37185,
        "meta_element_set_no": 999,
        "meta_rev_at_epoch": 5576,
        "meta_bstar": 0,
        "meta_mean_motion_dot": -1e-08,
        "meta_mean_motion_ddot": 0,
        "tle_line1": "1 37185U 10053A   25361.44760763 -.00000001  00000+0  00000+0 0  9997",
        "tle_line2": "2 37185   0.0683 269.6203 0002843 270.9750 321.5456  1.00275106 55769"
      },
      "geometry": {
        "type": "Point",
        "coordinates": [
          -88.12079113456994,
          -0.016134551658672606
        ]
      }
    }
  ]
}